; Toolpath G-Code
; Generated by Toolpath Lab
; Points: 504

G21 ; 公制单位
G90 ; 绝对坐标
G17 ; XY平面
M3 S1000.0 ; 主轴启动
G0 Z5.0 ; 安全高度

G0 X10.000 Y0.000
G0 Z8.000
G1 X9.980 Y0.628 Z8.000 F100.0
G1 X9.921 Y1.253 Z8.000 F100.0
G1 X9.823 Y1.874 Z8.000 F100.0
G1 X9.686 Y2.487 Z8.000 F100.0
G1 X9.511 Y3.090 Z8.000 F100.0
G1 X9.298 Y3.681 Z8.000 F100.0
G1 X9.048 Y4.258 Z8.000 F100.0
G1 X8.763 Y4.818 Z8.000 F100.0
G1 X8.443 Y5.358 Z8.000 F100.0
G1 X8.090 Y5.878 Z8.000 F100.0
G1 X7.705 Y6.374 Z8.000 F100.0
G1 X7.290 Y6.845 Z8.000 F100.0
G1 X6.845 Y7.290 Z8.000 F100.0
G1 X6.374 Y7.705 Z8.000 F100.0
G1 X5.878 Y8.090 Z8.000 F100.0
G1 X5.358 Y8.443 Z8.000 F100.0
G1 X4.818 Y8.763 Z8.000 F100.0
G1 X4.258 Y9.048 Z8.000 F100.0
G1 X3.681 Y9.298 Z8.000 F100.0
G1 X3.090 Y9.511 Z8.000 F100.0
G1 X2.487 Y9.686 Z8.000 F100.0
G1 X1.874 Y9.823 Z8.000 F100.0
G1 X1.253 Y9.921 Z8.000 F100.0
G1 X0.628 Y9.980 Z8.000 F100.0
G1 X0.000 Y10.000 Z8.000 F100.0
G1 X-0.628 Y9.980 Z8.000 F100.0
G1 X-1.253 Y9.921 Z8.000 F100.0
G1 X-1.874 Y9.823 Z8.000 F100.0
G1 X-2.487 Y9.686 Z8.000 F100.0
G1 X-3.090 Y9.511 Z8.000 F100.0
G1 X-3.681 Y9.298 Z8.000 F100.0
G1 X-4.258 Y9.048 Z8.000 F100.0
G1 X-4.818 Y8.763 Z8.000 F100.0
G1 X-5.358 Y8.443 Z8.000 F100.0
G1 X-5.878 Y8.090 Z8.000 F100.0
G1 X-6.374 Y7.705 Z8.000 F100.0
G1 X-6.845 Y7.290 Z8.000 F100.0
G1 X-7.290 Y6.845 Z8.000 F100.0
G1 X-7.705 Y6.374 Z8.000 F100.0
G1 X-8.090 Y5.878 Z8.000 F100.0
G1 X-8.443 Y5.358 Z8.000 F100.0
G1 X-8.763 Y4.818 Z8.000 F100.0
G1 X-9.048 Y4.258 Z8.000 F100.0
G1 X-9.298 Y3.681 Z8.000 F100.0
G1 X-9.511 Y3.090 Z8.000 F100.0
G1 X-9.686 Y2.487 Z8.000 F100.0
G1 X-9.823 Y1.874 Z8.000 F100.0
G1 X-9.921 Y1.253 Z8.000 F100.0
G1 X-9.980 Y0.628 Z8.000 F100.0
G1 X-10.000 Y0.000 Z8.000 F100.0
G1 X-9.980 Y-0.628 Z8.000 F100.0
G1 X-9.921 Y-1.253 Z8.000 F100.0
G1 X-9.823 Y-1.874 Z8.000 F100.0
G1 X-9.686 Y-2.487 Z8.000 F100.0
G1 X-9.511 Y-3.090 Z8.000 F100.0
G1 X-9.298 Y-3.681 Z8.000 F100.0
G1 X-9.048 Y-4.258 Z8.000 F100.0
G1 X-8.763 Y-4.818 Z8.000 F100.0
G1 X-8.443 Y-5.358 Z8.000 F100.0
G1 X-8.090 Y-5.878 Z8.000 F100.0
G1 X-7.705 Y-6.374 Z8.000 F100.0
G1 X-7.290 Y-6.845 Z8.000 F100.0
G1 X-6.845 Y-7.290 Z8.000 F100.0
G1 X-6.374 Y-7.705 Z8.000 F100.0
G1 X-5.878 Y-8.090 Z8.000 F100.0
G1 X-5.358 Y-8.443 Z8.000 F100.0
G1 X-4.818 Y-8.763 Z8.000 F100.0
G1 X-4.258 Y-9.048 Z8.000 F100.0
G1 X-3.681 Y-9.298 Z8.000 F100.0
G1 X-3.090 Y-9.511 Z8.000 F100.0
G1 X-2.487 Y-9.686 Z8.000 F100.0
G1 X-1.874 Y-9.823 Z8.000 F100.0
G1 X-1.253 Y-9.921 Z8.000 F100.0
G1 X-0.628 Y-9.980 Z8.000 F100.0
G1 X-0.000 Y-10.000 Z8.000 F100.0
G1 X0.628 Y-9.980 Z8.000 F100.0
G1 X1.253 Y-9.921 Z8.000 F100.0
G1 X1.874 Y-9.823 Z8.000 F100.0
G1 X2.487 Y-9.686 Z8.000 F100.0
G1 X3.090 Y-9.511 Z8.000 F100.0
G1 X3.681 Y-9.298 Z8.000 F100.0
G1 X4.258 Y-9.048 Z8.000 F100.0
G1 X4.818 Y-8.763 Z8.000 F100.0
G1 X5.358 Y-8.443 Z8.000 F100.0
G1 X5.878 Y-8.090 Z8.000 F100.0
G1 X6.374 Y-7.705 Z8.000 F100.0
G1 X6.845 Y-7.290 Z8.000 F100.0
G1 X7.290 Y-6.845 Z8.000 F100.0
G1 X7.705 Y-6.374 Z8.000 F100.0
G1 X8.090 Y-5.878 Z8.000 F100.0
G1 X8.443 Y-5.358 Z8.000 F100.0
G1 X8.763 Y-4.818 Z8.000 F100.0
G1 X9.048 Y-4.258 Z8.000 F100.0
G1 X9.298 Y-3.681 Z8.000 F100.0
G1 X9.511 Y-3.090 Z8.000 F100.0
G1 X9.686 Y-2.487 Z8.000 F100.0
G1 X9.823 Y-1.874 Z8.000 F100.0
G1 X9.921 Y-1.253 Z8.000 F100.0
G1 X9.980 Y-0.628 Z8.000 F100.0
G1 X17.500 Y0.000 Z8.000 F100.0
G1 X17.500 Y0.000 Z8.000 F100.0
G1 X17.465 Y1.099 Z8.000 F100.0
G1 X17.362 Y2.193 Z8.000 F100.0
G1 X17.190 Y3.279 Z8.000 F100.0
G1 X16.950 Y4.352 Z8.000 F100.0
G1 X16.643 Y5.408 Z8.000 F100.0
G1 X16.271 Y6.442 Z8.000 F100.0
G1 X15.834 Y7.451 Z8.000 F100.0
G1 X15.335 Y8.431 Z8.000 F100.0
G1 X14.776 Y9.377 Z8.000 F100.0
G1 X14.158 Y10.286 Z8.000 F100.0
G1 X13.484 Y11.155 Z8.000 F100.0
G1 X12.757 Y11.980 Z8.000 F100.0
G1 X11.980 Y12.757 Z8.000 F100.0
G1 X11.155 Y13.484 Z8.000 F100.0
G1 X10.286 Y14.158 Z8.000 F100.0
G1 X9.377 Y14.776 Z8.000 F100.0
G1 X8.431 Y15.335 Z8.000 F100.0
G1 X7.451 Y15.834 Z8.000 F100.0
G1 X6.442 Y16.271 Z8.000 F100.0
G1 X5.408 Y16.643 Z8.000 F100.0
G1 X4.352 Y16.950 Z8.000 F100.0
G1 X3.279 Y17.190 Z8.000 F100.0
G1 X2.193 Y17.362 Z8.000 F100.0
G1 X1.099 Y17.465 Z8.000 F100.0
G1 X0.000 Y17.500 Z8.000 F100.0
G1 X-1.099 Y17.465 Z8.000 F100.0
G1 X-2.193 Y17.362 Z8.000 F100.0
G1 X-3.279 Y17.190 Z8.000 F100.0
G1 X-4.352 Y16.950 Z8.000 F100.0
G1 X-5.408 Y16.643 Z8.000 F100.0
G1 X-6.442 Y16.271 Z8.000 F100.0
G1 X-7.451 Y15.834 Z8.000 F100.0
G1 X-8.431 Y15.335 Z8.000 F100.0
G1 X-9.377 Y14.776 Z8.000 F100.0
G1 X-10.286 Y14.158 Z8.000 F100.0
G1 X-11.155 Y13.484 Z8.000 F100.0
G1 X-11.980 Y12.757 Z8.000 F100.0
G1 X-12.757 Y11.980 Z8.000 F100.0
G1 X-13.484 Y11.155 Z8.000 F100.0
G1 X-14.158 Y10.286 Z8.000 F100.0
G1 X-14.776 Y9.377 Z8.000 F100.0
G1 X-15.335 Y8.431 Z8.000 F100.0
G1 X-15.834 Y7.451 Z8.000 F100.0
G1 X-16.271 Y6.442 Z8.000 F100.0
G1 X-16.643 Y5.408 Z8.000 F100.0
G1 X-16.950 Y4.352 Z8.000 F100.0
G1 X-17.190 Y3.279 Z8.000 F100.0
G1 X-17.362 Y2.193 Z8.000 F100.0
G1 X-17.465 Y1.099 Z8.000 F100.0
G1 X-17.500 Y0.000 Z8.000 F100.0
G1 X-17.465 Y-1.099 Z8.000 F100.0
G1 X-17.362 Y-2.193 Z8.000 F100.0
G1 X-17.190 Y-3.279 Z8.000 F100.0
G1 X-16.950 Y-4.352 Z8.000 F100.0
G1 X-16.643 Y-5.408 Z8.000 F100.0
G1 X-16.271 Y-6.442 Z8.000 F100.0
G1 X-15.834 Y-7.451 Z8.000 F100.0
G1 X-15.335 Y-8.431 Z8.000 F100.0
G1 X-14.776 Y-9.377 Z8.000 F100.0
G1 X-14.158 Y-10.286 Z8.000 F100.0
G1 X-13.484 Y-11.155 Z8.000 F100.0
G1 X-12.757 Y-11.980 Z8.000 F100.0
G1 X-11.980 Y-12.757 Z8.000 F100.0
G1 X-11.155 Y-13.484 Z8.000 F100.0
G1 X-10.286 Y-14.158 Z8.000 F100.0
G1 X-9.377 Y-14.776 Z8.000 F100.0
G1 X-8.431 Y-15.335 Z8.000 F100.0
G1 X-7.451 Y-15.834 Z8.000 F100.0
G1 X-6.442 Y-16.271 Z8.000 F100.0
G1 X-5.408 Y-16.643 Z8.000 F100.0
G1 X-4.352 Y-16.950 Z8.000 F100.0
G1 X-3.279 Y-17.190 Z8.000 F100.0
G1 X-2.193 Y-17.362 Z8.000 F100.0
G1 X-1.099 Y-17.465 Z8.000 F100.0
G1 X-0.000 Y-17.500 Z8.000 F100.0
G1 X1.099 Y-17.465 Z8.000 F100.0
G1 X2.193 Y-17.362 Z8.000 F100.0
G1 X3.279 Y-17.190 Z8.000 F100.0
G1 X4.352 Y-16.950 Z8.000 F100.0
G1 X5.408 Y-16.643 Z8.000 F100.0
G1 X6.442 Y-16.271 Z8.000 F100.0
G1 X7.451 Y-15.834 Z8.000 F100.0
G1 X8.431 Y-15.335 Z8.000 F100.0
G1 X9.377 Y-14.776 Z8.000 F100.0
G1 X10.286 Y-14.158 Z8.000 F100.0
G1 X11.155 Y-13.484 Z8.000 F100.0
G1 X11.980 Y-12.757 Z8.000 F100.0
G1 X12.757 Y-11.980 Z8.000 F100.0
G1 X13.484 Y-11.155 Z8.000 F100.0
G1 X14.158 Y-10.286 Z8.000 F100.0
G1 X14.776 Y-9.377 Z8.000 F100.0
G1 X15.335 Y-8.431 Z8.000 F100.0
G1 X15.834 Y-7.451 Z8.000 F100.0
G1 X16.271 Y-6.442 Z8.000 F100.0
G1 X16.643 Y-5.408 Z8.000 F100.0
G1 X16.950 Y-4.352 Z8.000 F100.0
G1 X17.190 Y-3.279 Z8.000 F100.0
G1 X17.362 Y-2.193 Z8.000 F100.0
G1 X17.465 Y-1.099 Z8.000 F100.0
G1 X25.000 Y0.000 Z8.000 F100.0
G1 X25.000 Y0.000 Z8.000 F100.0
G1 X24.951 Y1.570 Z8.000 F100.0
G1 X24.803 Y3.133 Z8.000 F100.0
G1 X24.557 Y4.685 Z8.000 F100.0
G1 X24.215 Y6.217 Z8.000 F100.0
G1 X23.776 Y7.725 Z8.000 F100.0
G1 X23.244 Y9.203 Z8.000 F100.0
G1 X22.621 Y10.644 Z8.000 F100.0
G1 X21.908 Y12.044 Z8.000 F100.0
G1 X21.108 Y13.396 Z8.000 F100.0
G1 X20.225 Y14.695 Z8.000 F100.0
G1 X19.263 Y15.936 Z8.000 F100.0
G1 X18.224 Y17.114 Z8.000 F100.0
G1 X17.114 Y18.224 Z8.000 F100.0
G1 X15.936 Y19.263 Z8.000 F100.0
G1 X14.695 Y20.225 Z8.000 F100.0
G1 X13.396 Y21.108 Z8.000 F100.0
G1 X12.044 Y21.908 Z8.000 F100.0
G1 X10.644 Y22.621 Z8.000 F100.0
G1 X9.203 Y23.244 Z8.000 F100.0
G1 X7.725 Y23.776 Z8.000 F100.0
G1 X6.217 Y24.215 Z8.000 F100.0
G1 X4.685 Y24.557 Z8.000 F100.0
G1 X3.133 Y24.803 Z8.000 F100.0
G1 X1.570 Y24.951 Z8.000 F100.0
G1 X0.000 Y25.000 Z8.000 F100.0
G1 X-1.570 Y24.951 Z8.000 F100.0
G1 X-3.133 Y24.803 Z8.000 F100.0
G1 X-4.685 Y24.557 Z8.000 F100.0
G1 X-6.217 Y24.215 Z8.000 F100.0
G1 X-7.725 Y23.776 Z8.000 F100.0
G1 X-9.203 Y23.244 Z8.000 F100.0
G1 X-10.644 Y22.621 Z8.000 F100.0
G1 X-12.044 Y21.908 Z8.000 F100.0
G1 X-13.396 Y21.108 Z8.000 F100.0
G1 X-14.695 Y20.225 Z8.000 F100.0
G1 X-15.936 Y19.263 Z8.000 F100.0
G1 X-17.114 Y18.224 Z8.000 F100.0
G1 X-18.224 Y17.114 Z8.000 F100.0
G1 X-19.263 Y15.936 Z8.000 F100.0
G1 X-20.225 Y14.695 Z8.000 F100.0
G1 X-21.108 Y13.396 Z8.000 F100.0
G1 X-21.908 Y12.044 Z8.000 F100.0
G1 X-22.621 Y10.644 Z8.000 F100.0
G1 X-23.244 Y9.203 Z8.000 F100.0
G1 X-23.776 Y7.725 Z8.000 F100.0
G1 X-24.215 Y6.217 Z8.000 F100.0
G1 X-24.557 Y4.685 Z8.000 F100.0
G1 X-24.803 Y3.133 Z8.000 F100.0
G1 X-24.951 Y1.570 Z8.000 F100.0
G1 X-25.000 Y0.000 Z8.000 F100.0
G1 X-24.951 Y-1.570 Z8.000 F100.0
G1 X-24.803 Y-3.133 Z8.000 F100.0
G1 X-24.557 Y-4.685 Z8.000 F100.0
G1 X-24.215 Y-6.217 Z8.000 F100.0
G1 X-23.776 Y-7.725 Z8.000 F100.0
G1 X-23.244 Y-9.203 Z8.000 F100.0
G1 X-22.621 Y-10.644 Z8.000 F100.0
G1 X-21.908 Y-12.044 Z8.000 F100.0
G1 X-21.108 Y-13.396 Z8.000 F100.0
G1 X-20.225 Y-14.695 Z8.000 F100.0
G1 X-19.263 Y-15.936 Z8.000 F100.0
G1 X-18.224 Y-17.114 Z8.000 F100.0
G1 X-17.114 Y-18.224 Z8.000 F100.0
G1 X-15.936 Y-19.263 Z8.000 F100.0
G1 X-14.695 Y-20.225 Z8.000 F100.0
G1 X-13.396 Y-21.108 Z8.000 F100.0
G1 X-12.044 Y-21.908 Z8.000 F100.0
G1 X-10.644 Y-22.621 Z8.000 F100.0
G1 X-9.203 Y-23.244 Z8.000 F100.0
G1 X-7.725 Y-23.776 Z8.000 F100.0
G1 X-6.217 Y-24.215 Z8.000 F100.0
G1 X-4.685 Y-24.557 Z8.000 F100.0
G1 X-3.133 Y-24.803 Z8.000 F100.0
G1 X-1.570 Y-24.951 Z8.000 F100.0
G1 X-0.000 Y-25.000 Z8.000 F100.0
G1 X1.570 Y-24.951 Z8.000 F100.0
G1 X3.133 Y-24.803 Z8.000 F100.0
G1 X4.685 Y-24.557 Z8.000 F100.0
G1 X6.217 Y-24.215 Z8.000 F100.0
G1 X7.725 Y-23.776 Z8.000 F100.0
G1 X9.203 Y-23.244 Z8.000 F100.0
G1 X10.644 Y-22.621 Z8.000 F100.0
G1 X12.044 Y-21.908 Z8.000 F100.0
G1 X13.396 Y-21.108 Z8.000 F100.0
G1 X14.695 Y-20.225 Z8.000 F100.0
G1 X15.936 Y-19.263 Z8.000 F100.0
G1 X17.114 Y-18.224 Z8.000 F100.0
G1 X18.224 Y-17.114 Z8.000 F100.0
G1 X19.263 Y-15.936 Z8.000 F100.0
G1 X20.225 Y-14.695 Z8.000 F100.0
G1 X21.108 Y-13.396 Z8.000 F100.0
G1 X21.908 Y-12.044 Z8.000 F100.0
G1 X22.621 Y-10.644 Z8.000 F100.0
G1 X23.244 Y-9.203 Z8.000 F100.0
G1 X23.776 Y-7.725 Z8.000 F100.0
G1 X24.215 Y-6.217 Z8.000 F100.0
G1 X24.557 Y-4.685 Z8.000 F100.0
G1 X24.803 Y-3.133 Z8.000 F100.0
G1 X24.951 Y-1.570 Z8.000 F100.0
G1 X32.500 Y0.000 Z8.000 F100.0
G1 X32.500 Y0.000 Z8.000 F100.0
G1 X32.436 Y2.041 Z8.000 F100.0
G1 X32.244 Y4.073 Z8.000 F100.0
G1 X31.924 Y6.090 Z8.000 F100.0
G1 X31.479 Y8.082 Z8.000 F100.0
G1 X30.909 Y10.043 Z8.000 F100.0
G1 X30.218 Y11.964 Z8.000 F100.0
G1 X29.407 Y13.838 Z8.000 F100.0
G1 X28.480 Y15.657 Z8.000 F100.0
G1 X27.441 Y17.414 Z8.000 F100.0
G1 X26.293 Y19.103 Z8.000 F100.0
G1 X25.042 Y20.716 Z8.000 F100.0
G1 X23.691 Y22.248 Z8.000 F100.0
G1 X22.248 Y23.691 Z8.000 F100.0
G1 X20.716 Y25.042 Z8.000 F100.0
G1 X19.103 Y26.293 Z8.000 F100.0
G1 X17.414 Y27.441 Z8.000 F100.0
G1 X15.657 Y28.480 Z8.000 F100.0
G1 X13.838 Y29.407 Z8.000 F100.0
G1 X11.964 Y30.218 Z8.000 F100.0
G1 X10.043 Y30.909 Z8.000 F100.0
G1 X8.082 Y31.479 Z8.000 F100.0
G1 X6.090 Y31.924 Z8.000 F100.0
G1 X4.073 Y32.244 Z8.000 F100.0
G1 X2.041 Y32.436 Z8.000 F100.0
G1 X0.000 Y32.500 Z8.000 F100.0
G1 X-2.041 Y32.436 Z8.000 F100.0
G1 X-4.073 Y32.244 Z8.000 F100.0
G1 X-6.090 Y31.924 Z8.000 F100.0
G1 X-8.082 Y31.479 Z8.000 F100.0
G1 X-10.043 Y30.909 Z8.000 F100.0
G1 X-11.964 Y30.218 Z8.000 F100.0
G1 X-13.838 Y29.407 Z8.000 F100.0
G1 X-15.657 Y28.480 Z8.000 F100.0
G1 X-17.414 Y27.441 Z8.000 F100.0
G1 X-19.103 Y26.293 Z8.000 F100.0
G1 X-20.716 Y25.042 Z8.000 F100.0
G1 X-22.248 Y23.691 Z8.000 F100.0
G1 X-23.691 Y22.248 Z8.000 F100.0
G1 X-25.042 Y20.716 Z8.000 F100.0
G1 X-26.293 Y19.103 Z8.000 F100.0
G1 X-27.441 Y17.414 Z8.000 F100.0
G1 X-28.480 Y15.657 Z8.000 F100.0
G1 X-29.407 Y13.838 Z8.000 F100.0
G1 X-30.218 Y11.964 Z8.000 F100.0
G1 X-30.909 Y10.043 Z8.000 F100.0
G1 X-31.479 Y8.082 Z8.000 F100.0
G1 X-31.924 Y6.090 Z8.000 F100.0
G1 X-32.244 Y4.073 Z8.000 F100.0
G1 X-32.436 Y2.041 Z8.000 F100.0
G1 X-32.500 Y0.000 Z8.000 F100.0
G1 X-32.436 Y-2.041 Z8.000 F100.0
G1 X-32.244 Y-4.073 Z8.000 F100.0
G1 X-31.924 Y-6.090 Z8.000 F100.0
G1 X-31.479 Y-8.082 Z8.000 F100.0
G1 X-30.909 Y-10.043 Z8.000 F100.0
G1 X-30.218 Y-11.964 Z8.000 F100.0
G1 X-29.407 Y-13.838 Z8.000 F100.0
G1 X-28.480 Y-15.657 Z8.000 F100.0
G1 X-27.441 Y-17.414 Z8.000 F100.0
G1 X-26.293 Y-19.103 Z8.000 F100.0
G1 X-25.042 Y-20.716 Z8.000 F100.0
G1 X-23.691 Y-22.248 Z8.000 F100.0
G1 X-22.248 Y-23.691 Z8.000 F100.0
G1 X-20.716 Y-25.042 Z8.000 F100.0
G1 X-19.103 Y-26.293 Z8.000 F100.0
G1 X-17.414 Y-27.441 Z8.000 F100.0
G1 X-15.657 Y-28.480 Z8.000 F100.0
G1 X-13.838 Y-29.407 Z8.000 F100.0
G1 X-11.964 Y-30.218 Z8.000 F100.0
G1 X-10.043 Y-30.909 Z8.000 F100.0
G1 X-8.082 Y-31.479 Z8.000 F100.0
G1 X-6.090 Y-31.924 Z8.000 F100.0
G1 X-4.073 Y-32.244 Z8.000 F100.0
G1 X-2.041 Y-32.436 Z8.000 F100.0
G1 X-0.000 Y-32.500 Z8.000 F100.0
G1 X2.041 Y-32.436 Z8.000 F100.0
G1 X4.073 Y-32.244 Z8.000 F100.0
G1 X6.090 Y-31.924 Z8.000 F100.0
G1 X8.082 Y-31.479 Z8.000 F100.0
G1 X10.043 Y-30.909 Z8.000 F100.0
G1 X11.964 Y-30.218 Z8.000 F100.0
G1 X13.838 Y-29.407 Z8.000 F100.0
G1 X15.657 Y-28.480 Z8.000 F100.0
G1 X17.414 Y-27.441 Z8.000 F100.0
G1 X19.103 Y-26.293 Z8.000 F100.0
G1 X20.716 Y-25.042 Z8.000 F100.0
G1 X22.248 Y-23.691 Z8.000 F100.0
G1 X23.691 Y-22.248 Z8.000 F100.0
G1 X25.042 Y-20.716 Z8.000 F100.0
G1 X26.293 Y-19.103 Z8.000 F100.0
G1 X27.441 Y-17.414 Z8.000 F100.0
G1 X28.480 Y-15.657 Z8.000 F100.0
G1 X29.407 Y-13.838 Z8.000 F100.0
G1 X30.218 Y-11.964 Z8.000 F100.0
G1 X30.909 Y-10.043 Z8.000 F100.0
G1 X31.479 Y-8.082 Z8.000 F100.0
G1 X31.924 Y-6.090 Z8.000 F100.0
G1 X32.244 Y-4.073 Z8.000 F100.0
G1 X32.436 Y-2.041 Z8.000 F100.0
G1 X40.000 Y0.000 Z8.000 F100.0
G1 X40.000 Y0.000 Z8.000 F100.0
G1 X39.921 Y2.512 Z8.000 F100.0
G1 X39.685 Y5.013 Z8.000 F100.0
G1 X39.291 Y7.495 Z8.000 F100.0
G1 X38.743 Y9.948 Z8.000 F100.0
G1 X38.042 Y12.361 Z8.000 F100.0
G1 X37.191 Y14.725 Z8.000 F100.0
G1 X36.193 Y17.031 Z8.000 F100.0
G1 X35.052 Y19.270 Z8.000 F100.0
G1 X33.773 Y21.433 Z8.000 F100.0
G1 X32.361 Y23.511 Z8.000 F100.0
G1 X30.821 Y25.497 Z8.000 F100.0
G1 X29.159 Y27.382 Z8.000 F100.0
G1 X27.382 Y29.159 Z8.000 F100.0
G1 X25.497 Y30.821 Z8.000 F100.0
G1 X23.511 Y32.361 Z8.000 F100.0
G1 X21.433 Y33.773 Z8.000 F100.0
G1 X19.270 Y35.052 Z8.000 F100.0
G1 X17.031 Y36.193 Z8.000 F100.0
G1 X14.725 Y37.191 Z8.000 F100.0
G1 X12.361 Y38.042 Z8.000 F100.0
G1 X9.948 Y38.743 Z8.000 F100.0
G1 X7.495 Y39.291 Z8.000 F100.0
G1 X5.013 Y39.685 Z8.000 F100.0
G1 X2.512 Y39.921 Z8.000 F100.0
G1 X0.000 Y40.000 Z8.000 F100.0
G1 X-2.512 Y39.921 Z8.000 F100.0
G1 X-5.013 Y39.685 Z8.000 F100.0
G1 X-7.495 Y39.291 Z8.000 F100.0
G1 X-9.948 Y38.743 Z8.000 F100.0
G1 X-12.361 Y38.042 Z8.000 F100.0
G1 X-14.725 Y37.191 Z8.000 F100.0
G1 X-17.031 Y36.193 Z8.000 F100.0
G1 X-19.270 Y35.052 Z8.000 F100.0
G1 X-21.433 Y33.773 Z8.000 F100.0
G1 X-23.511 Y32.361 Z8.000 F100.0
G1 X-25.497 Y30.821 Z8.000 F100.0
G1 X-27.382 Y29.159 Z8.000 F100.0
G1 X-29.159 Y27.382 Z8.000 F100.0
G1 X-30.821 Y25.497 Z8.000 F100.0
G1 X-32.361 Y23.511 Z8.000 F100.0
G1 X-33.773 Y21.433 Z8.000 F100.0
G1 X-35.052 Y19.270 Z8.000 F100.0
G1 X-36.193 Y17.031 Z8.000 F100.0
G1 X-37.191 Y14.725 Z8.000 F100.0
G1 X-38.042 Y12.361 Z8.000 F100.0
G1 X-38.743 Y9.948 Z8.000 F100.0
G1 X-39.291 Y7.495 Z8.000 F100.0
G1 X-39.685 Y5.013 Z8.000 F100.0
G1 X-39.921 Y2.512 Z8.000 F100.0
G1 X-40.000 Y0.000 Z8.000 F100.0
G1 X-39.921 Y-2.512 Z8.000 F100.0
G1 X-39.685 Y-5.013 Z8.000 F100.0
G1 X-39.291 Y-7.495 Z8.000 F100.0
G1 X-38.743 Y-9.948 Z8.000 F100.0
G1 X-38.042 Y-12.361 Z8.000 F100.0
G1 X-37.191 Y-14.725 Z8.000 F100.0
G1 X-36.193 Y-17.031 Z8.000 F100.0
G1 X-35.052 Y-19.270 Z8.000 F100.0
G1 X-33.773 Y-21.433 Z8.000 F100.0
G1 X-32.361 Y-23.511 Z8.000 F100.0
G1 X-30.821 Y-25.497 Z8.000 F100.0
G1 X-29.159 Y-27.382 Z8.000 F100.0
G1 X-27.382 Y-29.159 Z8.000 F100.0
G1 X-25.497 Y-30.821 Z8.000 F100.0
G1 X-23.511 Y-32.361 Z8.000 F100.0
G1 X-21.433 Y-33.773 Z8.000 F100.0
G1 X-19.270 Y-35.052 Z8.000 F100.0
G1 X-17.031 Y-36.193 Z8.000 F100.0
G1 X-14.725 Y-37.191 Z8.000 F100.0
G1 X-12.361 Y-38.042 Z8.000 F100.0
G1 X-9.948 Y-38.743 Z8.000 F100.0
G1 X-7.495 Y-39.291 Z8.000 F100.0
G1 X-5.013 Y-39.685 Z8.000 F100.0
G1 X-2.512 Y-39.921 Z8.000 F100.0
G1 X-0.000 Y-40.000 Z8.000 F100.0
G1 X2.512 Y-39.921 Z8.000 F100.0
G1 X5.013 Y-39.685 Z8.000 F100.0
G1 X7.495 Y-39.291 Z8.000 F100.0
G1 X9.948 Y-38.743 Z8.000 F100.0
G1 X12.361 Y-38.042 Z8.000 F100.0
G1 X14.725 Y-37.191 Z8.000 F100.0
G1 X17.031 Y-36.193 Z8.000 F100.0
G1 X19.270 Y-35.052 Z8.000 F100.0
G1 X21.433 Y-33.773 Z8.000 F100.0
G1 X23.511 Y-32.361 Z8.000 F100.0
G1 X25.497 Y-30.821 Z8.000 F100.0
G1 X27.382 Y-29.159 Z8.000 F100.0
G1 X29.159 Y-27.382 Z8.000 F100.0
G1 X30.821 Y-25.497 Z8.000 F100.0
G1 X32.361 Y-23.511 Z8.000 F100.0
G1 X33.773 Y-21.433 Z8.000 F100.0
G1 X35.052 Y-19.270 Z8.000 F100.0
G1 X36.193 Y-17.031 Z8.000 F100.0
G1 X37.191 Y-14.725 Z8.000 F100.0
G1 X38.042 Y-12.361 Z8.000 F100.0
G1 X38.743 Y-9.948 Z8.000 F100.0
G1 X39.291 Y-7.495 Z8.000 F100.0
G1 X39.685 Y-5.013 Z8.000 F100.0
G1 X39.921 Y-2.512 Z8.000 F100.0

G0 Z5.0 ; 抬刀
M5 ; 主轴停止
M30 ; 程序结束
